NORAD_CAT_ID,OBJECT_NAME,OBJECT_TYPE,EPOCH,MEAN_MOTION,ECCENTRICITY,INCLINATION,RA_OF_ASC_NODE,ARG_OF_PERICENTER,MEAN_ANOMALY,BSTAR,MEAN_MOTION_DOT,MEAN_MOTION_DDOT,TLE_LINE0,TLE_LINE1,TLE_LINE2,SEMIMAJOR_AXIS,PERIOD,APOGEE,PERIGEE,DECAYED
51798.0,STARLINK-3634,PAYLOAD,2024-07-06 11:33:35,15.08839314,0.0001379,53.2171,212.9404,99.2767,260.8381,-1.5034e-05,-5.27e-06,0.0,0 STARLINK-3634,1 51798U 22017AG  24188.48166653 -.00000527  00000-0 -15034-4 0  9997,2 51798  53.2171 212.9404 0001379  99.2767 260.8381 15.08839314131693,6917.882,95.438,540.701,538.794,0.0
51798.0,STARLINK-3634,PAYLOAD,2024-07-07 05:02:50,15.08837815,0.0001279,53.2161,209.671,89.526,270.5878,4.3132e-05,3.99e-06,0.0,0 STARLINK-3634,1 51798U 22017AG  24189.21030589  .00000399  00000-0  43132-4 0  9992,2 51798  53.2161 209.6710 0001279  89.5260 270.5878 15.08837815131800,6917.887,95.438,540.637,538.867,0.0
51798.0,STARLINK-3634,PAYLOAD,2024-07-07 08:13:36,15.08837561,0.0001263,53.2161,209.0766,87.5709,272.5427,4.1426e-05,3.71e-06,0.0,0 STARLINK-3634,1 51798U 22017AG  24189.34278625  .00000371  00000-0  41426-4 0  9995,2 51798  53.2161 209.0766 0001263  87.5709 272.5427 15.08837561131826,6917.888,95.438,540.627,538.879,0.0
51798.0,STARLINK-3634,PAYLOAD,2024-07-08 09:39:47,15.08835138,0.000123,53.2161,204.318,83.3951,276.7182,3.0397e-05,1.96e-06,0.0,0 STARLINK-3634,1 51798U 22017AG  24190.40262953  .00000196  00000-0  30397-4 0  9991,2 51798  53.2161 204.3180 0001230  83.3951 276.7182 15.08835138131980,6917.895,95.438,540.611,538.909,0.0
51798.0,STARLINK-3634,PAYLOAD,2024-07-08 17:36:42,15.08837609,0.0001223,53.216,202.831,82.5329,277.5802,4.9273e-05,4.96e-06,0.0,0 STARLINK-3634,1 51798U 22017AG  24190.73382823  .00000496  00000-0  49273-4 0  9992,2 51798  53.2160 202.8310 0001223  82.5329 277.5802 15.08837609132039,6917.888,95.438,540.599,538.907,0.0
51798.0,STARLINK-3634,PAYLOAD,2024-07-09 07:55:11,15.08835119,0.0001255,53.2164,200.1554,84.4129,275.7006,1.5165e-05,-4.7e-07,0.0,0 STARLINK-3634,1 51798U 22017AG  24191.32999232 -.00000047  00000-0  15165-4 0  9992,2 51798  53.2164 200.1554 0001255  84.4129 275.7006 15.08835119132128,6917.895,95.438,540.629,538.892,0.0
51798.0,STARLINK-3634,PAYLOAD,2024-07-10 04:35:12,15.08834469,0.0001247,53.2164,196.29,87.4717,272.6418,4.2832e-05,3.94e-06,0.0,0 STARLINK-3634,1 51798U 22017AG  24192.19111457  .00000394  00000-0  42832-4 0  9998,2 51798  53.2164 196.2900 0001247  87.4717 272.6418 15.08834469132259,6917.897,95.438,540.625,538.9,0.0
51798.0,STARLINK-3634,PAYLOAD,2024-07-10 09:21:21,15.08834687,0.0001254,53.2162,195.3979,87.9754,272.1382,4.2349e-05,3.86e-06,0.0,0 STARLINK-3634,1 51798U 22017AG  24192.38983511  .00000386  00000-0  42349-4 0  9991,2 51798  53.2162 195.3979 0001254  87.9754 272.1382 15.08834687132287,6917.897,95.438,540.629,538.894,0.0
51798.0,STARLINK-3634,PAYLOAD,2024-07-11 09:12:08,15.0884169,0.0001262,53.2161,190.9374,91.002,269.1117,0.00010545,1.391e-05,0.0,0 STARLINK-3634,1 51798U 22017AG  24193.38343045  .00001391  00000-0  10545-3 0  9993,2 51798  53.2161 190.9374 0001262  91.0020 269.1117 15.08841690132438,6917.875,95.437,540.613,538.867,0.0
51798.0,STARLINK-3634,PAYLOAD,2024-07-12 09:02:55,15.08842455,0.0001275,53.2159,186.4755,93.2301,266.8837,9.427e-05,1.213e-05,0.0,0 STARLINK-3634,1 51798U 22017AG  24194.37703026  .00001213  00000-0  94270-4 0  9993,2 51798  53.2159 186.4755 0001275  93.2301 266.8837 15.08842455132587,6917.873,95.437,540.62,538.856,0.0
51798.0,STARLINK-3634,PAYLOAD,2024-07-12 16:59:51,15.08842986,0.0001252,53.2157,184.9882,93.1273,266.9863,8.9721e-05,1.14e-05,0.0,0 STARLINK-3634,1 51798U 22017AG  24194.70822991  .00001140  00000-0  89721-4 0  9997,2 51798  53.2157 184.9882 0001252  93.1273 266.9863 15.08842986132636,6917.871,95.437,540.602,538.87,0.0
51798.0,STARLINK-3634,PAYLOAD,2024-07-13 05:42:56,15.08836386,0.0001373,53.2165,182.6101,93.7386,266.3763,-2.526e-05,-6.9e-06,0.0,0 STARLINK-3634,1 51798U 22017AG  24195.23815787 -.00000690  00000-0 -25260-4 0  9990,2 51798  53.2165 182.6101 0001373  93.7386 266.3763 15.08836386132718,6917.891,95.438,540.706,538.807,0.0
51798.0,STARLINK-3634,PAYLOAD,2024-07-14 05:33:43,15.08844274,0.0001419,53.216,178.15,92.2257,267.8898,6.1271e-05,6.87e-06,0.0,0 STARLINK-3634,1 51798U 22017AG  24196.23175000  .00000687  00000-0  61271-4 0  9994,2 51798  53.2160 178.1500 0001419  92.2257 267.8898 15.08844274132864,6917.867,95.437,540.714,538.751,0.0
51798.0,STARLINK-3634,PAYLOAD,2024-07-14 08:44:29,15.08845978,0.0001427,53.216,177.5552,91.9551,268.1605,7.363e-05,8.84e-06,0.0,0 STARLINK-3634,1 51798U 22017AG  24196.36422824  .00000884  00000-0  73630-4 0  9998,2 51798  53.2160 177.5552 0001427  91.9551 268.1605 15.08845978132880,6917.862,95.437,540.714,538.74,0.0
51798.0,STARLINK-3634,PAYLOAD,2024-07-15 05:24:30,15.08837535,0.0001423,53.2162,173.6879,92.1617,267.9539,8.0942e-05,1e-05,0.0,0 STARLINK-3634,1 51798U 22017AG  24197.22535318  .00001000  00000-0  80942-4 0  9992,2 51798  53.2162 173.6879 0001423  92.1617 267.9539 15.08837535133012,6917.888,95.438,540.737,538.769,0.0
51798.0,STARLINK-3634,PAYLOAD,2024-07-15 08:35:16,15.08837716,0.0001397,53.2162,173.0933,90.9536,269.1616,6.1298e-05,6.88e-06,0.0,0 STARLINK-3634,1 51798U 22017AG  24197.35783384  .00000688  00000-0  61298-4 0  9998,2 51798  53.2162 173.0933 0001397  90.9536 269.1616 15.08837716133036,6917.887,95.438,540.719,538.786,0.0
51798.0,STARLINK-3634,PAYLOAD,2024-07-15 14:56:48,15.08844706,0.0001443,53.2169,171.9044,92.1094,268.0064,0.00010457,1.377e-05,0.0,0 STARLINK-3634,1 51798U 22017AG  24197.62278824  .00001377  00000-0  10457-3 0  9992,2 51798  53.2169 171.9044 0001443  92.1094 268.0064 15.08844706133074,6917.866,95.437,540.729,538.733,0.0
51798.0,STARLINK-3634,PAYLOAD,2024-07-15 22:53:45,15.08837081,0.0001792,53.2168,170.4216,102.2334,257.8859,1.6431e-05,-2.7e-07,0.0,0 STARLINK-3634,1 51798U 22017AG  24197.95399614 -.00000027  00000-0  16431-4 0  9990,2 51798  53.2168 170.4216 0001792 102.2334 257.8859 15.08837081133127,6917.889,95.438,540.994,538.515,0.0
51798.0,STARLINK-3634,PAYLOAD,2024-07-16 05:15:18,15.08833556,0.0001405,53.2174,169.2341,99.3574,260.7577,-7.1251e-07,-2.99e-06,0.0,0 STARLINK-3634,1 51798U 22017AG  24198.21895962 -.00000299  00000-0 -71251-6 0  9992,2 51798  53.2174 169.2341 0001405  99.3574 260.7577 15.08833556133169,6917.9,95.438,540.737,538.793,0.0
51798.0,STARLINK-3634,PAYLOAD,2024-07-17 05:06:04,15.08837899,0.0001554,53.2174,164.7724,107.0343,253.082,4.1788e-05,3.77e-06,0.0,0 STARLINK-3634,1 51798U 22017AG  24199.21255563  .00000377  00000-0  41788-4 0  9995,2 51798  53.2174 164.7724 0001554 107.0343 253.0820 15.08837899133317,6917.887,95.438,540.827,538.677,0.0
51798.0,STARLINK-3634,PAYLOAD,2024-07-17 14:38:22,15.08854103,0.0001468,53.218,162.986,97.189,262.9269,0.00014576,2.033e-05,0.0,0 STARLINK-3634,1 51798U 22017AG  24199.60998200  .00002033  00000-0  14576-3 0  9995,2 51798  53.2180 162.9860 0001468  97.1890 262.9269 15.08854103133374,6917.837,95.437,540.718,538.687,0.0
51798.0,STARLINK-3634,PAYLOAD,2024-07-18 04:56:52,15.08831891,0.0001383,53.2173,160.3088,83.5134,276.6016,5.1173e-05,5.26e-06,0.0,0 STARLINK-3634,1 51798U 22017AG  24200.20616282  .00000526  00000-0  51173-4 0  9991,2 51798  53.2173 160.3088 0001383  83.5134 276.6016 15.08831891133467,6917.905,95.438,540.727,538.813,0.0
51798.0,STARLINK-3634,PAYLOAD,2024-07-18 06:32:15,15.08836738,0.0001417,53.2177,160.0114,83.9647,276.1506,9.7593e-05,1.265e-05,0.0,0 STARLINK-3634,1 51798U 22017AG  24200.27239961  .00001265  00000-0  97593-4 0  9990,2 51798  53.2177 160.0114 0001417  83.9647 276.1506 15.08836738133474,6917.89,95.438,540.736,538.775,0.0
51798.0,STARLINK-3634,PAYLOAD,2024-07-18 14:29:10,15.08843419,0.0001456,53.2167,158.5254,84.7358,275.3801,8.4128e-05,1.051e-05,0.0,0 STARLINK-3634,1 51798U 22017AG  24200.60359365  .00001051  00000-0  84128-4 0  9991,2 51798  53.2167 158.5254 0001456  84.7358 275.3801 15.08843419133520,6917.87,95.437,540.742,538.728,0.0
51798.0,STARLINK-3634,PAYLOAD,2024-07-19 04:47:39,15.08836451,0.0001424,53.2158,155.8466,87.8639,272.2516,-1.5234e-05,-5.3e-06,0.0,0 STARLINK-3634,1 51798U 22017AG  24201.19976014 -.00000530  00000-0 -15234-4 0  9997,2 51798  53.2158 155.8466 0001424  87.8639 272.2516 15.08836451133613,6917.891,95.438,540.741,538.771,0.0
51798.0,STARLINK-3634,PAYLOAD,2024-07-19 14:19:57,15.08849957,0.0001407,53.2159,154.0619,91.7255,268.3899,0.00018574,2.67e-05,0.0,0 STARLINK-3634,1 51798U 22017AG  24201.59719362  .00002670  00000-0  18574-3 0  9996,2 51798  53.2159 154.0619 0001407  91.7255 268.3899 15.08849957133675,6917.85,95.437,540.688,538.742,0.0
51798.0,STARLINK-3634,PAYLOAD,2024-07-19 17:30:43,15.08850232,0.000227,53.2159,153.467,80.134,279.9908,0.00014627,2.041e-05,0.0,0 STARLINK-3634,1 51798U 22017AG  24201.72967466  .00002041  00000-0  14627-3 0  9998,2 51798  53.2159 153.4670 0002270  80.1340 279.9908 15.08850232133690,6917.849,95.437,541.284,538.144,0.0
51798.0,STARLINK-3634,PAYLOAD,2024-07-20 03:03:03,15.08833665,0.0001399,53.217,151.681,93.221,266.8943,0.00014393,2.003e-05,0.0,0 STARLINK-3634,1 51798U 22017AG  24202.12712191  .00002003  00000-0  14393-3 0  9994,2 51798  53.2170 151.6810 0001399  93.2210 266.8943 15.08833665133753,6917.9,95.438,540.733,538.797,0.0
51798.0,STARLINK-3634,PAYLOAD,2024-07-20 14:10:44,15.08850965,0.0001336,53.2175,149.6015,97.5387,262.5757,0.00021101,3.073e-05,0.0,0 STARLINK-3634,1 51798U 22017AG  24202.59078946  .00003073  00000-0  21101-3 0  9991,2 51798  53.2175 149.6015 0001336  97.5387 262.5757 15.08850965133821,6917.847,95.437,540.636,538.788,0.0
51798.0,STARLINK-3634,PAYLOAD,2024-07-21 02:53:50,15.08832797,0.0001571,53.2169,147.2219,105.2616,254.855,7.3994e-05,8.9e-06,0.0,0 STARLINK-3634,1 51798U 22017AG  24203.12072496  .00000890  00000-0  73994-4 0  9997,2 51798  53.2169 147.2219 0001571 105.2616 254.8550 15.08832797133904,6917.902,95.438,540.854,538.681,0.0
